start=new Date('2022-11-05T00:00:00.000Z').valueOf();
sats=[{"PERIAPSIS":"562.177","EPHEMERIS_TYPE":"0","ECCENTRICITY":"0.00011770","REF_FRAME":"TEME","PERIOD":"95.919","SITE":"AFWTR","APOAPSIS":"563.811","BSTAR":"0.00016582000000","OBJECT_NAME":"STARLINK-4393","LAUNCH_DATE":"2022-08-12","OBJECT_TYPE":"PAYLOAD","MEAN_MOTION_DOT":"0.00002072","ELEMENT_SET_NO":"999","TLE_LINE2":"2 53470  97.6550  68.0712 0001177 358.6195   1.5026 15.01265789 12809","CLASSIFICATION_TYPE":"U","TIME_SYSTEM":"UTC","NORAD_CAT_ID":"53470","MEAN_MOTION":"15.01265789","ARG_OF_PERICENTER":"358.6195","MEAN_ANOMALY":"1.5026","DECAY_DATE":null,"SEMIMAJOR_AXIS":"6941.129","MEAN_MOTION_DDOT":"0.0000000000000","REV_AT_EPOCH":"1280","CENTER_NAME":"EARTH","RA_OF_ASC_NODE":"68.0712","MEAN_ELEMENT_THEORY":"SGP4","COUNTRY_CODE":"US","EPOCH":"2022-11-04T18:46:34.490496","FILE":"3645105","RCS_SIZE":"LARGE","INCLINATION":"97.6550","GP_ID":"216939161","TLE_LINE1":"1 53470U 22099F   22308.78234364  .00002072  00000-0  16582-3 0  9999","OBJECT_ID":"2022-099F"},{"REV_AT_EPOCH":"1273","MEAN_MOTION_DDOT":"0.0000000000000","SEMIMAJOR_AXIS":"6941.093","RA_OF_ASC_NODE":"67.5945","CENTER_NAME":"EARTH","EPOCH":"2022-11-04T07:29:01.321440","MEAN_ELEMENT_THEORY":"SGP4","COUNTRY_CODE":"US","GP_ID":"216906305","RCS_SIZE":"LARGE","FILE":"3644787","INCLINATION":"97.6532","OBJECT_ID":"2022-099G","TLE_LINE1":"1 53471U 22099G   22308.31182085  .00004345  00000-0  34249-3 0  9996","EPHEMERIS_TYPE":"0","PERIAPSIS":"562.207","OBJECT_NAME":"STARLINK-4316","LAUNCH_DATE":"2022-08-12","PERIOD":"95.918","ECCENTRICITY":"0.00010820","REF_FRAME":"TEME","BSTAR":"0.00034249000000","SITE":"AFWTR","APOAPSIS":"563.709","MEAN_MOTION_DOT":"0.00004345","CLASSIFICATION_TYPE":"U","TIME_SYSTEM":"UTC","ELEMENT_SET_NO":"999","TLE_LINE2":"2 53471  97.6532  67.5945 0001082 300.9826  59.1292 15.01277365 12737","OBJECT_TYPE":"PAYLOAD","MEAN_ANOMALY":"59.1292","DECAY_DATE":null,"NORAD_CAT_ID":"53471","MEAN_MOTION":"15.01277365","ARG_OF_PERICENTER":"300.9826"},{"INCLINATION":"97.6498","RCS_SIZE":"LARGE","FILE":"3645105","GP_ID":"216939606","TLE_LINE1":"1 53472U 22099H   22308.78023772 -.00001760  00000-0 -13245-3 0  9998","OBJECT_ID":"2022-099H","SEMIMAJOR_AXIS":"6941.121","MEAN_MOTION_DDOT":"0.0000000000000","REV_AT_EPOCH":"1280","MEAN_ELEMENT_THEORY":"SGP4","COUNTRY_CODE":"US","EPOCH":"2022-11-04T18:43:32.539008","CENTER_NAME":"EARTH","RA_OF_ASC_NODE":"68.0577","OBJECT_TYPE":"PAYLOAD","TLE_LINE2":"2 53472  97.6498  68.0577 0001057 337.3048  22.8129 15.01268249 12803","ELEMENT_SET_NO":"999","TIME_SYSTEM":"UTC","CLASSIFICATION_TYPE":"U","MEAN_MOTION_DOT":"-0.00001760","ARG_OF_PERICENTER":"337.3048","MEAN_MOTION":"15.01268249","NORAD_CAT_ID":"53472","DECAY_DATE":null,"MEAN_ANOMALY":"22.8129","PERIAPSIS":"562.253","EPHEMERIS_TYPE":"0","APOAPSIS":"563.720","SITE":"AFWTR","BSTAR":"-0.00013245000000","ECCENTRICITY":"0.00010570","REF_FRAME":"TEME","PERIOD":"95.919","LAUNCH_DATE":"2022-08-12","OBJECT_NAME":"STARLINK-4447"},{"MEAN_MOTION_DDOT":"0.0000000000000","REV_AT_EPOCH":"1280","SEMIMAJOR_AXIS":"6941.082","RA_OF_ASC_NODE":"68.0476","CENTER_NAME":"EARTH","MEAN_ELEMENT_THEORY":"SGP4","COUNTRY_CODE":"US","EPOCH":"2022-11-04T18:35:32.724384","GP_ID":"216938568","RCS_SIZE":"LARGE","FILE":"3645105","INCLINATION":"97.6550","OBJECT_ID":"2022-099J","TLE_LINE1":"1 53473U 22099J   22308.77468431  .00001757  00000-0  14126-3 0  9996","EPHEMERIS_TYPE":"0","PERIAPSIS":"562.422","OBJECT_NAME":"STARLINK-4383","LAUNCH_DATE":"2022-08-12","REF_FRAME":"TEME","ECCENTRICITY":"0.00007570","PERIOD":"95.918","APOAPSIS":"563.473","SITE":"AFWTR","BSTAR":"0.00014126000000","MEAN_MOTION_DOT":"0.00001757","TLE_LINE2":"2 53473  97.6550  68.0476 0000757 318.1909  41.9257 15.01280952 12809","ELEMENT_SET_NO":"999","TIME_SYSTEM":"UTC","CLASSIFICATION_TYPE":"U","OBJECT_TYPE":"PAYLOAD","MEAN_ANOMALY":"41.9257","DECAY_DATE":null,"NORAD_CAT_ID":"53473","MEAN_MOTION":"15.01280952","ARG_OF_PERICENTER":"318.1909"},{"TLE_LINE1":"1 53474U 22099K   22308.76753685  .00001340  00000-0  10888-3 0  9993","OBJECT_ID":"2022-099K","INCLINATION":"97.6569","FILE":"3645105","RCS_SIZE":"LARGE","GP_ID":"216938743","COUNTRY_CODE":"US","MEAN_ELEMENT_THEORY":"SGP4","EPOCH":"2022-11-04T18:25:15.183840","RA_OF_ASC_NODE":"68.0372","CENTER_NAME":"EARTH","SEMIMAJOR_AXIS":"6941.154","MEAN_MOTION_DDOT":"0.0000000000000","REV_AT_EPOCH":"1280","ARG_OF_PERICENTER":"336.0942","NORAD_CAT_ID":"53474","MEAN_MOTION":"15.01257812","DECAY_DATE":null,"MEAN_ANOMALY":"24.0241","OBJECT_TYPE":"PAYLOAD","ELEMENT_SET_NO":"999","TLE_LINE2":"2 53474  97.6569  68.0372 0000877 336.0942  24.0241 15.01257812 12808","CLASSIFICATION_TYPE":"U","TIME_SYSTEM":"UTC","MEAN_MOTION_DOT":"0.00001340","SITE":"AFWTR","BSTAR":"0.00010888000000","APOAPSIS":"563.627","ECCENTRICITY":"0.00008770","REF_FRAME":"TEME","PERIOD":"95.920","LAUNCH_DATE":"2022-08-12","OBJECT_NAME":"STARLINK-4445","PERIAPSIS":"562.410","EPHEMERIS_TYPE":"0"},{"TLE_LINE1":"1 53475U 22099L   22308.50622978  .00010639  00000-0  83083-3 0  9994","OBJECT_ID":"2022-099L","INCLINATION":"97.6515","RCS_SIZE":"LARGE","FILE":"3645076","GP_ID":"216914004","EPOCH":"2022-11-04T12:08:58.252992","COUNTRY_CODE":"US","MEAN_ELEMENT_THEORY":"SGP4","CENTER_NAME":"EARTH","RA_OF_ASC_NODE":"67.7783","SEMIMAJOR_AXIS":"6941.036","REV_AT_EPOCH":"1300","MEAN_MOTION_DDOT":"0.0000000000000","ARG_OF_PERICENTER":"313.4400","MEAN_MOTION":"15.01295916","NORAD_CAT_ID":"53475","DECAY_DATE":null,"MEAN_ANOMALY":"46.6683","OBJECT_TYPE":"PAYLOAD","CLASSIFICATION_TYPE":"U","TIME_SYSTEM":"UTC","TLE_LINE2":"2 53475  97.6515  67.7783 0001697 313.4400  46.6683 15.01295916 13001","ELEMENT_SET_NO":"999","MEAN_MOTION_DOT":"0.00010639","APOAPSIS":"564.079","SITE":"AFWTR","BSTAR":"0.00083083000000","PERIOD":"95.917","REF_FRAME":"TEME","ECCENTRICITY":"0.00016970","LAUNCH_DATE":"2022-08-12","OBJECT_NAME":"STARLINK-4389","PERIAPSIS":"561.723","EPHEMERIS_TYPE":"0"},{"OBJECT_TYPE":"PAYLOAD","MEAN_MOTION_DOT":"-0.00004722","CLASSIFICATION_TYPE":"U","TIME_SYSTEM":"UTC","TLE_LINE2":"2 53476  97.6534  68.0520 0000842 269.6711  90.4417 15.01271583 12807","ELEMENT_SET_NO":"999","MEAN_MOTION":"15.01271583","NORAD_CAT_ID":"53476","ARG_OF_PERICENTER":"269.6711","MEAN_ANOMALY":"90.4417","DECAY_DATE":null,"PERIAPSIS":"562.392","EPHEMERIS_TYPE":"0","PERIOD":"95.919","ECCENTRICITY":"0.00008420","REF_FRAME":"TEME","APOAPSIS":"563.561","SITE":"AFWTR","BSTAR":"-0.00036317000000","OBJECT_NAME":"STARLINK-4378","LAUNCH_DATE":"2022-08-12","FILE":"3645105","RCS_SIZE":"LARGE","INCLINATION":"97.6534","GP_ID":"216939326","TLE_LINE1":"1 53476U 22099M   22308.77653805 -.00004722  00000-0 -36317-3 0  9993","OBJECT_ID":"2022-099M","SEMIMAJOR_AXIS":"6941.111","REV_AT_EPOCH":"1280","MEAN_MOTION_DDOT":"0.0000000000000","RA_OF_ASC_NODE":"68.0520","CENTER_NAME":"EARTH","EPOCH":"2022-11-04T18:38:12.887520","MEAN_ELEMENT_THEORY":"SGP4","COUNTRY_CODE":"US"},{"SITE":"AFWTR","APOAPSIS":"563.918","BSTAR":"0.00049813000000","PERIOD":"95.918","REF_FRAME":"TEME","ECCENTRICITY":"0.00014080","LAUNCH_DATE":"2022-08-12","OBJECT_NAME":"STARLINK-4412","PERIAPSIS":"561.963","EPHEMERIS_TYPE":"0","ARG_OF_PERICENTER":"332.6675","NORAD_CAT_ID":"53477","MEAN_MOTION":"15.01283196","DECAY_DATE":null,"MEAN_ANOMALY":"27.4475","OBJECT_TYPE":"PAYLOAD","TIME_SYSTEM":"UTC","CLASSIFICATION_TYPE":"U","ELEMENT_SET_NO":"999","TLE_LINE2":"2 53477  97.6539  67.7757 0001408 332.6675  27.4475 15.01283196 13460","MEAN_MOTION_DOT":"0.00006349","EPOCH":"2022-11-04T12:03:38.229120","MEAN_ELEMENT_THEORY":"SGP4","COUNTRY_CODE":"US","RA_OF_ASC_NODE":"67.7757","CENTER_NAME":"EARTH","SEMIMAJOR_AXIS":"6941.075","REV_AT_EPOCH":"1346","MEAN_MOTION_DDOT":"0.0000000000000","TLE_LINE1":"1 53477U 22099N   22308.50252580  .00006349  00000-0  49813-3 0  9990","OBJECT_ID":"2022-099N","INCLINATION":"97.6539","FILE":"3644787","RCS_SIZE":"LARGE","GP_ID":"216906480"},{"EPHEMERIS_TYPE":"0","PERIAPSIS":"562.453","OBJECT_NAME":"STARLINK-4433","LAUNCH_DATE":"2022-08-12","ECCENTRICITY":"0.00008440","REF_FRAME":"TEME","PERIOD":"95.920","APOAPSIS":"563.625","SITE":"AFWTR","BSTAR":"-0.00009865100000","MEAN_MOTION_DOT":"-0.00001325","TLE_LINE2":"2 53478  97.6548  68.0456 0000844 318.5012  41.6148 15.01251280 12803","ELEMENT_SET_NO":"999","CLASSIFICATION_TYPE":"U","TIME_SYSTEM":"UTC","OBJECT_TYPE":"PAYLOAD","MEAN_ANOMALY":"41.6148","DECAY_DATE":null,"MEAN_MOTION":"15.01251280","NORAD_CAT_ID":"53478","ARG_OF_PERICENTER":"318.5012","MEAN_MOTION_DDOT":"0.0000000000000","REV_AT_EPOCH":"1280","SEMIMAJOR_AXIS":"6941.174","CENTER_NAME":"EARTH","RA_OF_ASC_NODE":"68.0456","MEAN_ELEMENT_THEORY":"SGP4","COUNTRY_CODE":"US","EPOCH":"2022-11-04T18:35:55.180608","GP_ID":"216939162","RCS_SIZE":"LARGE","FILE":"3645105","INCLINATION":"97.6548","OBJECT_ID":"2022-099P","TLE_LINE1":"1 53478U 22099P   22308.77494422 -.00001325  00000-0 -98651-4 0  9999"},{"GP_ID":"216939501","RCS_SIZE":"LARGE","FILE":"3645105","INCLINATION":"97.6536","OBJECT_ID":"2022-099Q","TLE_LINE1":"1 53479U 22099Q   22308.76728928  .00000032  00000-0  70720-5 0  9990","MEAN_MOTION_DDOT":"0.0000000000000","REV_AT_EPOCH":"1280","SEMIMAJOR_AXIS":"6941.131","RA_OF_ASC_NODE":"68.0359","CENTER_NAME":"EARTH","MEAN_ELEMENT_THEORY":"SGP4","COUNTRY_CODE":"US","EPOCH":"2022-11-04T18:24:53.793792","MEAN_MOTION_DOT":"0.00000032","ELEMENT_SET_NO":"999","TLE_LINE2":"2 53479  97.6536  68.0359 0002217 346.9793  13.1374 15.01265157 12803","CLASSIFICATION_TYPE":"U","TIME_SYSTEM":"UTC","OBJECT_TYPE":"PAYLOAD","MEAN_ANOMALY":"13.1374","DECAY_DATE":null,"MEAN_MOTION":"15.01265157","NORAD_CAT_ID":"53479","ARG_OF_PERICENTER":"346.9793","EPHEMERIS_TYPE":"0","PERIAPSIS":"561.457","OBJECT_NAME":"STARLINK-4436","LAUNCH_DATE":"2022-08-12","ECCENTRICITY":"0.00022170","REF_FRAME":"TEME","PERIOD":"95.919","APOAPSIS":"564.535","SITE":"AFWTR","BSTAR":"0.00000707200000"}];
